STARLINK-1513
1 15786C 20038BJ  21326.15451302 -.00018248  00000-0 -12226-2 0  3262
2 15786  53.0537  38.0468 0001358  73.5195 357.1908 15.06418496    19
